start=new Date('2022-05-05T00:00:00.000Z').valueOf();
sats=[{"FILE":"3429148","DECAY_DATE":null,"REF_FRAME":"TEME","PERIOD":"91.532","GP_ID":"202719044","ARG_OF_PERICENTER":"57.3928","COUNTRY_CODE":"US","PERIAPSIS":"348.742","RCS_SIZE":"LARGE","SITE":"AFETR","LAUNCH_DATE":"2022-03-19","MEAN_MOTION_DDOT":"0.0000000000000","MEAN_ANOMALY":"46.4259","MEAN_MOTION_DOT":"-0.00024123","MEAN_MOTION":"15.73226884","INCLINATION":"53.2142","CENTER_NAME":"EARTH","EPOCH":"2022-05-04T22:00:01.999584","TLE_LINE1":"1 52133U 22029AX  22124.91668981 -.00024123  00000-0 -16775-3 0  9991","OBJECT_ID":"2022-029AX","NORAD_CAT_ID":"52133","EPHEMERIS_TYPE":"0","TIME_SYSTEM":"UTC","REV_AT_EPOCH":"370","MEAN_ELEMENT_THEORY":"SGP4","OBJECT_TYPE":"PAYLOAD","RA_OF_ASC_NODE":"272.8387","ELEMENT_SET_NO":"999","TLE_LINE2":"2 52133  53.2142 272.8387 0001400  57.3928  46.4259 15.73226884  3705","APOAPSIS":"350.625","BSTAR":"-0.00016775000000","OBJECT_NAME":"STARLINK-3707","SEMIMAJOR_AXIS":"6727.819","ECCENTRICITY":"0.00014000","CLASSIFICATION_TYPE":"U"},{"CENTER_NAME":"EARTH","TLE_LINE1":"1 52134U 22029AY  22124.91668981  .00009155  00000-0  69525-4 0  9990","EPOCH":"2022-05-04T22:00:01.999584","INCLINATION":"53.2144","NORAD_CAT_ID":"52134","OBJECT_ID":"2022-029AY","EPHEMERIS_TYPE":"0","OBJECT_TYPE":"PAYLOAD","TIME_SYSTEM":"UTC","MEAN_ELEMENT_THEORY":"SGP4","REV_AT_EPOCH":"370","RA_OF_ASC_NODE":"272.8415","ELEMENT_SET_NO":"999","OBJECT_NAME":"STARLINK-3721","BSTAR":"0.00006952500000","SEMIMAJOR_AXIS":"6727.848","TLE_LINE2":"2 52134  53.2144 272.8415 0001134  64.4983  38.7611 15.73216638  3706","APOAPSIS":"350.476","CLASSIFICATION_TYPE":"U","ECCENTRICITY":"0.00011340","FILE":"3429148","PERIOD":"91.532","REF_FRAME":"TEME","ARG_OF_PERICENTER":"64.4983","GP_ID":"202719149","DECAY_DATE":null,"COUNTRY_CODE":"US","PERIAPSIS":"348.950","RCS_SIZE":"LARGE","SITE":"AFETR","MEAN_MOTION":"15.73216638","LAUNCH_DATE":"2022-03-19","MEAN_MOTION_DDOT":"0.0000000000000","MEAN_ANOMALY":"38.7611","MEAN_MOTION_DOT":"0.00009155"},{"ELEMENT_SET_NO":"999","RA_OF_ASC_NODE":"272.8352","ECCENTRICITY":"0.00012010","CLASSIFICATION_TYPE":"U","APOAPSIS":"350.503","TLE_LINE2":"2 52135  53.2142 272.8352 0001201  51.8309  53.6941 15.73222875  3704","SEMIMAJOR_AXIS":"6727.830","BSTAR":"-0.00005802500000","OBJECT_NAME":"STARLINK-3729","OBJECT_ID":"2022-029AZ","NORAD_CAT_ID":"52135","INCLINATION":"53.2142","EPOCH":"2022-05-04T22:00:01.999584","TLE_LINE1":"1 52135U 22029AZ  22124.91668981 -.00008763  00000-0 -58025-4 0  9990","CENTER_NAME":"EARTH","REV_AT_EPOCH":"370","MEAN_ELEMENT_THEORY":"SGP4","TIME_SYSTEM":"UTC","OBJECT_TYPE":"PAYLOAD","EPHEMERIS_TYPE":"0","SITE":"AFETR","RCS_SIZE":"LARGE","PERIAPSIS":"348.887","MEAN_MOTION_DDOT":"0.0000000000000","MEAN_ANOMALY":"53.6941","MEAN_MOTION_DOT":"-0.00008763","LAUNCH_DATE":"2022-03-19","MEAN_MOTION":"15.73222875","DECAY_DATE":null,"ARG_OF_PERICENTER":"51.8309","GP_ID":"202719312","REF_FRAME":"TEME","PERIOD":"91.532","FILE":"3429148","COUNTRY_CODE":"US"},{"PERIAPSIS":"348.933","SITE":"AFETR","RCS_SIZE":"LARGE","MEAN_MOTION":"15.73199160","MEAN_MOTION_DDOT":"0.0000000000000","MEAN_ANOMALY":"51.1260","MEAN_MOTION_DOT":"0.00030340","LAUNCH_DATE":"2022-03-19","FILE":"3429148","ARG_OF_PERICENTER":"53.2573","GP_ID":"202719229","REF_FRAME":"TEME","PERIOD":"91.533","DECAY_DATE":null,"COUNTRY_CODE":"US","RA_OF_ASC_NODE":"272.8387","ELEMENT_SET_NO":"999","SEMIMAJOR_AXIS":"6727.898","OBJECT_NAME":"STARLINK-3720","BSTAR":"0.00021982000000","APOAPSIS":"350.592","TLE_LINE2":"2 52136  53.2144 272.8387 0001233  53.2573  51.1260 15.73199160  3706","CLASSIFICATION_TYPE":"U","ECCENTRICITY":"0.00012330","TLE_LINE1":"1 52136U 22029BA  22124.91668981  .00030340  00000-0  21982-3 0  9996","EPOCH":"2022-05-04T22:00:01.999584","CENTER_NAME":"EARTH","INCLINATION":"53.2144","NORAD_CAT_ID":"52136","OBJECT_ID":"2022-029BA","EPHEMERIS_TYPE":"0","OBJECT_TYPE":"PAYLOAD","REV_AT_EPOCH":"370","MEAN_ELEMENT_THEORY":"SGP4","TIME_SYSTEM":"UTC"},{"ARG_OF_PERICENTER":"47.6542","GP_ID":"202719389","PERIOD":"91.531","REF_FRAME":"TEME","DECAY_DATE":null,"FILE":"3429148","COUNTRY_CODE":"US","SITE":"AFETR","RCS_SIZE":"LARGE","PERIAPSIS":"348.753","MEAN_MOTION":"15.73233233","MEAN_MOTION_DOT":"-0.00026751","MEAN_MOTION_DDOT":"0.0000000000000","MEAN_ANOMALY":"58.4633","LAUNCH_DATE":"2022-03-19","NORAD_CAT_ID":"52137","OBJECT_ID":"2022-029BB","EPOCH":"2022-05-04T22:00:01.999584","TLE_LINE1":"1 52137U 22029BB  22124.91668981 -.00026751  00000-0 -18652-3 0  9990","CENTER_NAME":"EARTH","INCLINATION":"53.2143","OBJECT_TYPE":"PAYLOAD","MEAN_ELEMENT_THEORY":"SGP4","REV_AT_EPOCH":"370","TIME_SYSTEM":"UTC","EPHEMERIS_TYPE":"0","ELEMENT_SET_NO":"999","RA_OF_ASC_NODE":"272.8340","CLASSIFICATION_TYPE":"U","ECCENTRICITY":"0.00013560","SEMIMAJOR_AXIS":"6727.800","BSTAR":"-0.00018652000000","OBJECT_NAME":"STARLINK-3733","APOAPSIS":"350.578","TLE_LINE2":"2 52137  53.2143 272.8340 0001356  47.6542  58.4633 15.73233233  3708"},{"MEAN_MOTION_DDOT":"0.0000000000000","MEAN_MOTION_DOT":"0.00018136","MEAN_ANOMALY":"37.5030","LAUNCH_DATE":"2022-03-19","MEAN_MOTION":"15.73176493","SITE":"AFETR","RCS_SIZE":"LARGE","PERIAPSIS":"349.235","COUNTRY_CODE":"US","DECAY_DATE":null,"GP_ID":"202718805","ARG_OF_PERICENTER":"67.4345","PERIOD":"91.535","REF_FRAME":"TEME","FILE":"3429148","ECCENTRICITY":"0.00008800","CLASSIFICATION_TYPE":"U","APOAPSIS":"350.419","TLE_LINE2":"2 52138  53.2144 272.8378 0000880  67.4345  37.5030 15.73176493  3706","SEMIMAJOR_AXIS":"6727.962","OBJECT_NAME":"STARLINK-3723","BSTAR":"0.00013349000000","ELEMENT_SET_NO":"999","RA_OF_ASC_NODE":"272.8378","MEAN_ELEMENT_THEORY":"SGP4","REV_AT_EPOCH":"370","TIME_SYSTEM":"UTC","OBJECT_TYPE":"PAYLOAD","EPHEMERIS_TYPE":"0","OBJECT_ID":"2022-029BC","NORAD_CAT_ID":"52138","INCLINATION":"53.2144","EPOCH":"2022-05-04T22:00:01.999584","TLE_LINE1":"1 52138U 22029BC  22124.91668981  .00018136  00000-0  13349-3 0  9995","CENTER_NAME":"EARTH"},{"TIME_SYSTEM":"UTC","REV_AT_EPOCH":"370","MEAN_ELEMENT_THEORY":"SGP4","OBJECT_TYPE":"PAYLOAD","EPHEMERIS_TYPE":"0","OBJECT_ID":"2022-029BD","NORAD_CAT_ID":"52139","INCLINATION":"53.2170","CENTER_NAME":"EARTH","EPOCH":"2022-05-04T22:00:01.999584","TLE_LINE1":"1 52139U 22029BD  22124.91668981 -.00713305  00000-0 -93100-2 0  9990","ECCENTRICITY":"0.00010660","CLASSIFICATION_TYPE":"U","TLE_LINE2":"2 52139  53.2170 272.7905 0001066  90.0537   4.0004 15.60402987  3709","APOAPSIS":"387.215","BSTAR":"-0.00931000000000","OBJECT_NAME":"STARLINK-3730","SEMIMAJOR_AXIS":"6764.629","ELEMENT_SET_NO":"999","RA_OF_ASC_NODE":"272.7905","COUNTRY_CODE":"US","DECAY_DATE":null,"REF_FRAME":"TEME","PERIOD":"92.284","ARG_OF_PERICENTER":"90.0537","GP_ID":"202718968","FILE":"3429148","LAUNCH_DATE":"2022-03-19","MEAN_MOTION_DOT":"-0.00713305","MEAN_MOTION_DDOT":"0.0000000000000","MEAN_ANOMALY":"4.0004","MEAN_MOTION":"15.60402987","RCS_SIZE":"LARGE","SITE":"AFETR","PERIAPSIS":"385.773"},{"RCS_SIZE":"LARGE","SITE":"AFETR","PERIAPSIS":"348.862","LAUNCH_DATE":"2022-03-19","MEAN_MOTION_DDOT":"0.0000000000000","MEAN_ANOMALY":"52.7502","MEAN_MOTION_DOT":"-0.00022465","MEAN_MOTION":"15.73244369","DECAY_DATE":null,"REF_FRAME":"TEME","PERIOD":"91.531","ARG_OF_PERICENTER":"54.4557","GP_ID":"202718885","FILE":"3429148","COUNTRY_CODE":"US","ELEMENT_SET_NO":"999","RA_OF_ASC_NODE":"272.8330","ECCENTRICITY":"0.00011470","CLASSIFICATION_TYPE":"U","TLE_LINE2":"2 52140  53.2143 272.8330 0001147  54.4557  52.7502 15.73244369  3705","APOAPSIS":"350.405","OBJECT_NAME":"STARLINK-3682","BSTAR":"-0.00015578000000","SEMIMAJOR_AXIS":"6727.769","OBJECT_ID":"2022-029BE","NORAD_CAT_ID":"52140","INCLINATION":"53.2143","CENTER_NAME":"EARTH","EPOCH":"2022-05-04T22:00:01.999584","TLE_LINE1":"1 52140U 22029BE  22124.91668981 -.00022465  00000-0 -15578-3 0  9996","TIME_SYSTEM":"UTC","REV_AT_EPOCH":"370","MEAN_ELEMENT_THEORY":"SGP4","OBJECT_TYPE":"PAYLOAD","EPHEMERIS_TYPE":"0"},{"ECCENTRICITY":"0.00012220","CLASSIFICATION_TYPE":"U","TLE_LINE2":"2 52261  53.2148 309.3531 0001222  40.1358 335.4809 15.73210054  2735","APOAPSIS":"350.554","OBJECT_NAME":"STARLINK-3810","BSTAR":"-0.00001030800000","SEMIMAJOR_AXIS":"6727.867","ELEMENT_SET_NO":"999","RA_OF_ASC_NODE":"309.3531","TIME_SYSTEM":"UTC","REV_AT_EPOCH":"273","MEAN_ELEMENT_THEORY":"SGP4","OBJECT_TYPE":"PAYLOAD","EPHEMERIS_TYPE":"0","OBJECT_ID":"2022-041A","NORAD_CAT_ID":"52261","INCLINATION":"53.2148","CENTER_NAME":"EARTH","TLE_LINE1":"1 52261U 22041A   22124.91668981 -.00002067  00000-0 -10308-4 0  9997","EPOCH":"2022-05-04T22:00:01.999584","LAUNCH_DATE":"2022-04-21","MEAN_MOTION_DDOT":"0.0000000000000","MEAN_MOTION_DOT":"-0.00002067","MEAN_ANOMALY":"335.4809","MEAN_MOTION":"15.73210054","RCS_SIZE":"LARGE","SITE":"AFETR","PERIAPSIS":"348.909","COUNTRY_CODE":"US","DECAY_DATE":null,"PERIOD":"91.533","REF_FRAME":"TEME","ARG_OF_PERICENTER":"40.1358","GP_ID":"202718981","FILE":"3429148"},{"ELEMENT_SET_NO":"999","RA_OF_ASC_NODE":"309.3543","CLASSIFICATION_TYPE":"U","ECCENTRICITY":"0.00013440","OBJECT_NAME":"STARLINK-3761","BSTAR":"-0.00000175860000","SEMIMAJOR_AXIS":"6727.811","TLE_LINE2":"2 52262  53.2148 309.3543 0001344  52.6703 321.7532 15.73229557  2735","APOAPSIS":"350.580","NORAD_CAT_ID":"52262","OBJECT_ID":"2022-041B","CENTER_NAME":"EARTH","TLE_LINE1":"1 52262U 22041B   22124.91668981 -.00000867  00000-0 -17586-5 0  9990","EPOCH":"2022-05-04T22:00:01.999584","INCLINATION":"53.2148","OBJECT_TYPE":"PAYLOAD","TIME_SYSTEM":"UTC","REV_AT_EPOCH":"273","MEAN_ELEMENT_THEORY":"SGP4","EPHEMERIS_TYPE":"0","RCS_SIZE":"LARGE","SITE":"AFETR","PERIAPSIS":"348.772","MEAN_MOTION":"15.73229557","LAUNCH_DATE":"2022-04-21","MEAN_MOTION_DDOT":"0.0000000000000","MEAN_ANOMALY":"321.7532","MEAN_MOTION_DOT":"-0.00000867","PERIOD":"91.531","REF_FRAME":"TEME","GP_ID":"202718898","ARG_OF_PERICENTER":"52.6703","DECAY_DATE":null,"FILE":"3429148","COUNTRY_CODE":"US"}];
